LEMUR-1                 
1 40044U 14033AL  26202.65125124  .00001145  00000+0  13692-3 0  9995
2 40044  97.7917 351.7008 0047251 326.4372  33.3852 14.85349700650583
LEMUR-2-GREENBERG       
1 42837U 17042N   26203.16537908  .00018000  00000+0  57832-3 0  9996
2 42837  97.3841  23.6586 0007587 230.5241 129.5330 15.32308489493745
LEMUR-2-ANDIS           
1 42838U 17042P   26203.24128012  .00023876  00000+0  67868-3 0  9995
2 42838  97.3695  24.0453 0007569 229.4061 130.6525 15.36132873493833
LEMUR-2-MONSON          
1 42839U 17042Q   26203.25101878  .00017242  00000+0  61588-3 0  9991
2 42839  97.4104  23.6608 0005828 216.4201 143.6643 15.28892640493522
LEMUR-2-FURIAUS         
1 42840U 17042R   26202.98689977  .00018172  00000+0  60292-3 0  9997
2 42840  97.3788  21.3574 0005640 300.5579  59.5105 15.31284337493534
LEMUR-2-PETERG          
1 42841U 17042S   26203.05076011  .00023118  00000+0  67727-3 0  9992
2 42841  97.4004  28.1750 0003840 192.3150 167.8000 15.35212844493782
LEMUR-2-DEMBITZ         
1 42842U 17042T   26203.00675832  .00017604  00000+0  58480-3 0  9993
2 42842  97.3839  24.4256 0005274 243.5314 116.5387 15.31253266493678
LEMUR-2-ZACHARY         
1 42845U 17042W   26203.26910975  .00056885  00000+0  90130-3 0  9996
2 42845  97.3582  35.7273 0003043 215.6332 144.4718 15.53224971494643
LEMUR-2-AMANDA-SVANTE   
1 48269U 21034B   26203.16039938  .00037847  00000+0  10684-2 0  9990
2 48269  97.5742 282.4182 0004739 127.6932 232.4742 15.36270782286422
LEMUR-2-SPECIAL-K       
1 48273U 21034F   26203.19068231  .00345361  00000+0  19970-2 0  9996
2 48273  97.5624 292.9159 0006016 212.4390 147.6506 15.77641740287187
LEMUR-2-EMBRIONOVIS     
1 56970U 23084AQ  26202.35970605  .00010910  00000+0  29061-3 0  9992
2 56970  97.6331 347.8997 0008806 183.9306 176.1871 15.38334823172930
LEMUR-2-DEVERILL-M-T    
1 57391U 23100F   26203.11282451  .00027845  00000+0  66867-3 0  9999
2 57391  99.4448 252.0047 0004862 268.1229  91.9454 15.41335162166629
LEMUR-2-BASS            
1 58259U 23174D   26203.15002914  .00018753  00000+0  41037-3 0  9992
2 58259  97.3837 288.3767 0007142  57.2085 302.9850 15.44159275150758
LEMUR-2-JK0903EM1407    
1 58336U 23174CJ  26202.69043884  .00026447  00000+0  42025-3 0  9994
2 58336  97.3916 294.1752 0002991   5.7529 354.3758 15.53305119151084
LEMUR-2-MJR092620       
1 58340U 23174CN  26203.25123456  .00020690  00000+0  42462-3 0  9995
2 58340  97.3965 293.9561 0004611   3.4646 356.6634 15.46048543151067
LEMUR-2-NIMBUS2000      
1 58899U 24022A   26203.15070028  .00024095  00000+0  57851-3 0  9993
2 58899  97.4082  53.6196 0008009   4.2287 355.9026 15.41323777137653
LEMUR-2-VALHALLA        
1 58900U 24022B   26203.15850943  .00017325  00000+0  42639-3 0  9994
2 58900  97.4083  53.5903 0008485 359.3592   0.7642 15.40637374137652
LEMUR-2-CAEL            
1 58903U 24022E   26203.07302341  .00019460  00000+0  45745-3 0  9995
2 58903  97.4059  54.5028 0006412 343.2611  16.8423 15.42017289137710
LEMUR-2-JOHNNYTRUONG    
1 59146U 24043BA  26203.00529750  .00044499  00000+0  49086-3 0  9998
2 59146  97.5399 356.9393 0003720  71.0948 289.0713 15.62967002133474
LEMUR-2-TOMATOKECHUP    
1 60471U 24149D   26203.14744841  .00011096  00000+0  31184-3 0  9990
2 60471  97.3784 285.2978 0003425 109.4483 250.7131 15.36681759107538
LEMUR-2-STELLA          
1 60533U 24149BT  26203.15299095  .00011542  00000+0  66676-3 0  9996
2 60533  97.6726 285.7764 0001486 120.5489 239.5888 15.12470451105787
LEMUR-2-MARHISYAM       
1 60536U 24149BW  26203.14664558  .00009972  00000+0  58642-3 0  9996
2 60536  97.6869 286.2535 0002141  59.0352 301.1089 15.11865787105760
LEMUR-2-AHMED-ASRAR     
1 60576U 24149DN  26202.68328214  .00010189  00000+0  57417-3 0  9995
2 60576  97.6994 288.0164 0001767 179.7234 180.3998 15.13398598105784
LEMUR-2-LLOYD           
1 60577U 24149DP  26203.17390374  .00011315  00000+0  70278-3 0  9999
2 60577  97.6734 284.3347 0004153  52.8968 307.2640 15.09837932105673
LEMUR-2-SQUIRRELCOMM    
1 60578U 24149DQ  26203.17324855  .00006199  00000+0  41252-3 0  9995
2 60578  97.6700 283.9805 0003973 293.1589  66.9220 15.07496745105673
LEMUR-2-SIERRINI        
1 60579U 24149DR  26203.17674141  .00012244  00000+0  72377-3 0  9992
2 60579  97.6830 285.9384 0006047  72.1001 288.0887 15.11610498105743
LEMUR-2-WILSON          
1 62694U 25009CP  26203.16136626  .00002012  00000+0  18780-3 0  9998
2 62694  97.7015 281.0127 0001562 282.8389  77.2657 14.95296152 82584
LEMUR-2-STAR-FOX        
1 62696U 25009CR  26203.18444545  .00007915  00000+0  59390-3 0  9993
2 62696  97.6901 284.5412 0001459  13.2189 346.9074 15.02907513 82817
LEMUR-2-ARIANNA         
1 62699U 25009CU  26203.18289883  .00008019  00000+0  60161-3 0  9992
2 62699  97.6845 284.2864 0001826  23.9997 336.1313 15.02911553 82814
LEMUR-2-ALISIA          
1 62706U 25009DB  26203.15371916  .00007602  00000+0  56548-3 0  9998
2 62706  97.6958 285.0965 0004992 110.8859 249.2901 15.03243967105416
