OBJECT_NAME,OBJECT_ID,EPOCH,MEAN_MOTION,ECCENTRICITY,INCLINATION,RA_OF_ASC_NODE,ARG_OF_PERICENTER,MEAN_ANOMALY,EPHEMERIS_TYPE,CLASSIFICATION_TYPE,NORAD_CAT_ID,ELEMENT_SET_NO,REV_AT_EPOCH,BSTAR,MEAN_MOTION_DOT,MEAN_MOTION_DDOT
LEMUR-1,2014-033AL,2026-07-21T15:37:48.107136,14.85349700,.00472517,97.7917,351.7008,326.4372,33.3852,0,U,40044,999,65058,.1369179E-3,.1145E-4,0
LEMUR-2-GREENBERG,2017-042N,2026-07-22T03:58:08.752512,15.32308489,.00075872,97.3841,23.6586,230.5241,129.5330,0,U,42837,999,49374,.57832306E-3,.18E-3,0
LEMUR-2-ANDIS,2017-042P,2026-07-22T05:47:26.602368,15.36132873,.00075695,97.3695,24.0453,229.4061,130.6525,0,U,42838,999,49383,.67868402E-3,.23876E-3,0
LEMUR-2-MONSON,2017-042Q,2026-07-22T06:01:28.022592,15.28892640,.00058286,97.4104,23.6608,216.4201,143.6643,0,U,42839,999,49352,.6158825E-3,.17242E-3,0
LEMUR-2-FURIAUS,2017-042R,2026-07-21T23:41:08.140128,15.31284337,.00056409,97.3788,21.3574,300.5579,59.5105,0,U,42840,999,49353,.60292314E-3,.18172E-3,0
LEMUR-2-PETERG,2017-042S,2026-07-22T01:13:05.673504,15.35212844,.00038403,97.4004,28.1750,192.3150,167.8000,0,U,42841,999,49378,.67726635E-3,.23118E-3,0
LEMUR-2-DEMBITZ,2017-042T,2026-07-22T00:09:43.918848,15.31253266,.00052746,97.3839,24.4256,243.5314,116.5387,0,U,42842,999,49367,.58479899E-3,.17604E-3,0
LEMUR-2-ZACHARY,2017-042W,2026-07-22T06:27:31.082400,15.53224971,.00030435,97.3582,35.7273,215.6332,144.4718,0,U,42845,999,49464,.90129545E-3,.56885E-3,0
LEMUR-2-AMANDA-SVANTE,2021-034B,2026-07-22T03:50:58.506432,15.36270782,.00047393,97.5742,282.4182,127.6932,232.4742,0,U,48269,999,28642,.10684426E-2,.37847E-3,0
LEMUR-2-SPECIAL-K,2021-034F,2026-07-22T04:34:34.951584,15.77641740,.00060169,97.5624,292.9159,212.4390,147.6506,0,U,48273,999,28718,.19969598E-2,.345361E-2,0
LEMUR-2-EMBRIONOVIS,2023-084AQ,2026-07-21T08:37:58.602720,15.38334823,.00088061,97.6331,347.8997,183.9306,176.1871,0,U,56970,999,17293,.29060526E-3,.1091E-3,0
LEMUR-2-DEVERILL-M-T,2023-100F,2026-07-22T02:42:28.037664,15.41335162,.00048629,99.4448,252.0047,268.1229,91.9454,0,U,57391,999,16662,.66867319E-3,.27845E-3,0
LEMUR-2-BASS,2023-174D,2026-07-22T03:36:02.517696,15.44159275,.00071427,97.3837,288.3767,57.2085,302.9850,0,U,58259,999,15075,.41036983E-3,.18753E-3,0
LEMUR-2-JK0903EM1407,2023-174CJ,2026-07-21T16:34:13.915776,15.53305119,.00029911,97.3916,294.1752,5.7529,354.3758,0,U,58336,999,15108,.42024972E-3,.26447E-3,0
LEMUR-2-MJR092620,2023-174CN,2026-07-22T06:01:46.665984,15.46048543,.00046118,97.3965,293.9561,3.4646,356.6634,0,U,58340,999,15106,.42461684E-3,.2069E-3,0
LEMUR-2-NIMBUS2000,2024-022A,2026-07-22T03:37:00.504192,15.41323777,.00080097,97.4082,53.6196,4.2287,355.9026,0,U,58899,999,13765,.57851328E-3,.24095E-3,0
LEMUR-2-VALHALLA,2024-022B,2026-07-22T03:48:15.214752,15.40637374,.00084856,97.4083,53.5903,359.3592,0.7642,0,U,58900,999,13765,.42639488E-3,.17325E-3,0
LEMUR-2-CAEL,2024-022E,2026-07-22T01:45:09.222624,15.42017289,.00064123,97.4059,54.5028,343.2611,16.8423,0,U,58903,999,13771,.45744907E-3,.1946E-3,0
LEMUR-2-JOHNNYTRUONG,2024-043BA,2026-07-22T00:07:37.704000,15.62967002,.00037205,97.5399,356.9393,71.0948,289.0713,0,U,59146,999,13347,.49086237E-3,.44499E-3,0
LEMUR-2-TOMATOKECHUP,2024-149D,2026-07-22T03:32:19.542624,15.36681759,.0003425,97.3784,285.2978,109.4483,250.7131,0,U,60471,999,10753,.31183917E-3,.11096E-3,0
LEMUR-2-STELLA,2024-149BT,2026-07-22T03:40:18.418080,15.12470451,.00014862,97.6726,285.7764,120.5489,239.5888,0,U,60533,999,10578,.66675738E-3,.11542E-3,0
LEMUR-2-MARHISYAM,2024-149BW,2026-07-22T03:31:10.178112,15.11865787,.00021417,97.6869,286.2535,59.0352,301.1089,0,U,60536,999,10576,.58642199E-3,.9972E-4,0
LEMUR-2-AHMED-ASRAR,2024-149DN,2026-07-21T16:23:55.576896,15.13398598,.00017673,97.6994,288.0164,179.7234,180.3998,0,U,60576,999,10578,.57417316E-3,.10189E-3,0
LEMUR-2-LLOYD,2024-149DP,2026-07-22T04:10:25.283136,15.09837932,.0004153,97.6734,284.3347,52.8968,307.2640,0,U,60577,999,10567,.70278002E-3,.11315E-3,0
LEMUR-2-SQUIRRELCOMM,2024-149DQ,2026-07-22T04:09:28.674720,15.07496745,.00039732,97.6700,283.9805,293.1589,66.9220,0,U,60578,999,10567,.41251545E-3,.6199E-4,0
LEMUR-2-SIERRINI,2024-149DR,2026-07-22T04:14:30.457824,15.11610498,.00060475,97.6830,285.9384,72.1001,288.0887,0,U,60579,999,10574,.72376888E-3,.12244E-3,0
LEMUR-2-WILSON,2025-009CP,2026-07-22T03:52:22.044864,14.95296152,.0001562,97.7015,281.0127,282.8389,77.2657,0,U,62694,999,8258,.18779581E-3,.2012E-4,0
LEMUR-2-STAR-FOX,2025-009CR,2026-07-22T04:25:36.086880,15.02907513,.0001459,97.6901,284.5412,13.2189,346.9074,0,U,62696,999,8281,.59389957E-3,.7915E-4,0
LEMUR-2-ARIANNA,2025-009CU,2026-07-22T04:23:22.458912,15.02911553,.00018268,97.6845,284.2864,23.9997,336.1313,0,U,62699,999,8281,.60161092E-3,.8019E-4,0
LEMUR-2-ALISIA,2025-009DB,2026-07-22T03:41:21.335424,15.03243967,.00049927,97.6958,285.0965,110.8859,249.2901,0,U,62706,999,10541,.56548142E-3,.7602E-4,0
